[{"OBJECT_NAME":"STARLINK-30503","OBJECT_ID":"2023-151M","EPOCH":"2026-03-09T04:12:32.982336","MEAN_MOTION":15.27599044,"ECCENTRICITY":0.00020611,"INCLINATION":43.0027,"RA_OF_ASC_NODE":339.2227,"ARG_OF_PERICENTER":264.9376,"MEAN_ANOMALY":95.1241,"EPHEMERIS_TYPE":0,"CLASSIFICATION_TYPE":"U","NORAD_CAT_ID":57975,"ELEMENT_SET_NO":999,"REV_AT_EPOCH":13568,"BSTAR":-0.0005000993,"MEAN_MOTION_DOT":-0.00014007,"MEAN_MOTION_DDOT":0},{"OBJECT_NAME":"OBJECT B","OBJECT_ID":"2024-092B","EPOCH":"2026-03-09T22:35:16.756224","MEAN_MOTION":15.26654665,"ECCENTRICITY":0.00097063,"INCLINATION":97.6334,"RA_OF_ASC_NODE":195.5822,"ARG_OF_PERICENTER":166.5945,"MEAN_ANOMALY":193.5553,"EPHEMERIS_TYPE":0,"CLASSIFICATION_TYPE":"U","NORAD_CAT_ID":59774,"ELEMENT_SET_NO":999,"REV_AT_EPOCH":10038,"BSTAR":0.00052893964,"MEAN_MOTION_DOT":0.00013825,"MEAN_MOTION_DDOT":0}]
